[{"OBJECT_NAME":"GEESAT-6 11","OBJECT_ID":"2025-214M","EPOCH":"2026-03-09T23:07:42.214656","MEAN_MOTION":14.83011183,"ECCENTRICITY":0.00102147,"INCLINATION":49.983,"RA_OF_ASC_NODE":47.57,"ARG_OF_PERICENTER":204.321,"MEAN_ANOMALY":155.7247,"EPHEMERIS_TYPE":0,"CLASSIFICATION_TYPE":"U","NORAD_CAT_ID":65723,"ELEMENT_SET_NO":999,"REV_AT_EPOCH":2478,"BSTAR":0.0003899676,"MEAN_MOTION_DOT":2.981e-5,"MEAN_MOTION_DDOT":0},{"OBJECT_NAME":"SL-14 R\/B","OBJECT_ID":"1984-111B","EPOCH":"2026-03-09T21:13:00.090048","MEAN_MOTION":14.86060168,"ECCENTRICITY":0.00194189,"INCLINATION":82.512,"RA_OF_ASC_NODE":256.2815,"ARG_OF_PERICENTER":336.2654,"MEAN_ANOMALY":23.7664,"EPHEMERIS_TYPE":0,"CLASSIFICATION_TYPE":"U","NORAD_CAT_ID":15370,"ELEMENT_SET_NO":999,"REV_AT_EPOCH":21590,"BSTAR":6.4730325e-5,"MEAN_MOTION_DOT":5.92e-6,"MEAN_MOTION_DDOT":0}]
